IRIDIUM 155             
1 43573U 18061E   25060.56891625  .00000027  00000+0  27223-5 0  9992
2 43573  86.3912 254.1394 0002316  85.0149 275.1311 14.34218046345612
IRIDIUM 154             
1 43574U 18061F   25060.54988838 -.00000017  00000+0 -13073-4 0  9992
2 43574  86.3921 254.2577 0001873  89.4792 270.6619 14.34217408345663
IRIDIUM 163             
1 43575U 18061G   25060.60062908  .00000011  00000+0 -29705-5 0  9994
2 43575  86.3917 254.1666 0002048  92.8523 267.2907 14.34217606345642
IRIDIUM 156             
1 43576U 18061H   25060.57525914  .00000018  00000+0 -80497-6 0  9995
2 43576  86.3915 254.1841 0002287  81.0862 279.0593 14.34217819345623
IRIDIUM 164             
1 43577U 18061J   25060.55623025 -.00000015  00000+0 -12257-4 0  9991
2 43577  86.3920 254.2249 0001716  88.1558 271.9834 14.34217506345676
IRIDIUM 159             
1 43578U 18061K   25060.59428603  .00000010  00000+0 -36516-5 0  9990
2 43578  86.3918 254.1556 0001826  96.1323 264.0081 14.34217654345643
IRIDIUM 180             
1 43922U 19002A   25060.45424770  .00000175  00000+0  55343-4 0  9994
2 43922  86.4032 191.1381 0002127  97.4874 262.6563 14.34217636321238
IRIDIUM 176             
1 43923U 19002B   25060.44359556  .00002421  00000+0  37988-3 0  9993
2 43923  86.6158 191.1440 0002272 113.3465 246.7991 14.72269805329694
IRIDIUM 168             
1 43924U 19002C   25060.44790477  .00000017  00000+0 -85511-6 0  9993
2 43924  86.4034 191.2047 0002034  99.3505 260.7921 14.34216614321211
IRIDIUM 173             
1 43925U 19002D   25060.43521921  .00000221  00000+0  71925-4 0  9997
2 43925  86.4026 191.1182 0002238  96.4650 263.6801 14.34216852321197
IRIDIUM 169             
1 43926U 19002E   25060.48194547  .00000693  00000+0  22023-3 0  9990
2 43926  86.4224 222.6793 0003636  88.6810 271.4804 14.38599123322268
IRIDIUM 172             
1 43927U 19002F   25060.35910647  .00000671  00000+0  23262-3 0  9996
2 43927  86.4030 191.1563 0002088 100.8233 259.3198 14.34216262321193
IRIDIUM 175             
1 43928U 19002G   25060.23443401  .00002570  00000+0  40346-3 0  9995
2 43928  86.1552 149.9229 0002878  78.9630 281.1910 14.72257222329650
IRIDIUM 171             
1 43929U 19002H   25060.40984668  .00000071  00000+0  18166-4 0  9990
2 43929  86.4038 191.3888 0001734  85.5900 274.5493 14.34215467321195
IRIDIUM 170             
1 43930U 19002J   25060.38178641  .00002677  00000+0  42052-3 0  9999
2 43930  86.6116 191.1708 0002906  97.2121 262.9426 14.72249454329697
IRIDIUM 167             
1 43931U 19002K   25060.40349391  .00000906  00000+0  31649-3 0  9998
2 43931  86.4029 191.1562 0002130  84.6104 275.5335 14.34225055321192
IRIDIUM 181             
1 56726U 23068S   25060.55732148  .00000421  00000+0  11918-3 0  9992
2 56726  86.4455 254.1887 0001936  76.0117 284.1299 14.43306760 94266
IRIDIUM 177             
1 56727U 23068T   25060.44935253  .00002891  00000+0  37698-3 0  9999
2 56727  86.2021 193.2179 0002428  88.4248 271.7251 14.80228515 96433
IRIDIUM 174             
1 56728U 23068U   25060.44391579  .00002654  00000+0  34593-3 0  9995
2 56728  86.2037 193.3448 0002087  99.8390 260.3067 14.80214827 96436
IRIDIUM 178             
1 56729U 23068V   25060.50608434  .00000492  00000+0  61299-4 0  9996
2 56729  86.5775 222.9305 0001081  86.0942 274.0403 14.80219356 96443
IRIDIUM 179             
1 56730U 23068W   25060.50066665  .00001307  00000+0  16855-3 0  9995
2 56730  86.6769 230.3018 0001971  94.7943 265.3503 14.80240188 96449
